#aV2008  9 16  0  0   .00000000      96 DD+AD WGS84 FIT  NGA
## 1497 172800.00000000   900.00000000 54725  .0000000000000
+   31     2  3  4  5  6  7  8  9 10 11 12 13 14 15 16 17 18
+         19 20 21 22 23 24 25 26 27 28 29 30 31 32  0  0  0
+          0  0  0  0  0  0  0  0  0  0  0  0  0  0  0  0  0
+          0  0  0  0  0  0  0  0  0  0  0  0  0  0  0  0  0
+          0  0  0  0  0  0  0  0  0  0  0  0  0  0  0  0  0
++         0  0  0  0  0  0  0  0  0  0  0  0  0  0  0  0  0
++         0  0  0  0  0  0  0  0  0  0  0  0  0  0  0  0  0
++         0  0  0  0  0  0  0  0  0  0  0  0  0  0  0  0  0
++         0  0  0  0  0  0  0  0  0  0  0  0  0  0  0  0  0
++         0  0  0  0  0  0  0  0  0  0  0  0  0  0  0  0  0
%c cc cc ccc ccc cccc cccc cccc cccc ccccc ccccc ccccc ccccc
%c cc cc ccc ccc cccc cccc cccc cccc ccccc ccccc ccccc ccccc
%f  0.0000000  0.000000000  0.00000000000  0.000000000000000
%f  0.0000000  0.000000000  0.00000000000  0.000000000000000
%i    0    0    0    0      0      0      0      0         0
%i    0    0    0    0      0      0      0      0         0
/*      NGA, ST. LOUIS,MO.                                  
/*   EPHEMERIS COMPUTED FROM  3 DAYS OF DATA                
/* CCCCCCCCCCCCCCCCCCCCCCCCCCCCCCCCCCCCCCCCCCCCCCCCCCCCCCCCC
/* CCCCCCCCCCCCCCCCCCCCCCCCCCCCCCCCCCCCCCCCCCCCCCCCCCCCCCCCC
*  2008  9 16 12 45   .00000000                                                 
P  2  10484.362197  21199.690260  12313.371984    186.988520                    
V  2 -13492.081522  -8521.006010  25499.375398      -.028155                    
P  3  -5128.702193 -15290.203682 -21366.698926    284.226506                    
V  3  24479.924240 -10526.360948   2037.881406       .050824                    
P  4  -2926.478980  17028.216137  19969.892240   -172.948493                    
V  4 -19942.341787 -16367.661966  11340.374185      -.110614                    
P  5  14986.556426   4305.057150  21218.473981    -63.956523                    
V  5  -3531.641654  27461.577280  -2906.091265     -1.111228                    
P  6    810.366345 -16534.298511 -20582.414593    166.171905                    
V  6  25324.237408  -8405.115914   7676.850518      -.016946                    
P  7 -19908.879863  -1505.200640 -17593.752221     17.472971                    
V  7 -15470.220931 -16050.203733  18814.595798       .023992                    
P  8 -11551.673667   9235.458402 -22157.015250   -170.265021                    
V  8 -19691.901349 -19698.572966   1585.204075      -.016351                    
P  9  21671.138388  14820.193742   3786.458490     15.206491                    
V  9   2750.711819   5412.566258 -31460.209570       .018409                    
P 10   2400.456945  23795.513493 -11329.885680     -4.951118                    
V 10  -5867.526554  13291.273162  27318.326475      -.004951                    
P 11 -24263.545909 -10251.265376   4436.686718     19.749575                    
V 11  -2676.609877  -6943.840646 -29220.639889      -.006954                    
P 12  12308.822428  11224.603955  20783.437563   -350.718013                    
V 12  -6326.464277  25420.289553  -9921.264041       .015528                    
P 13 -25882.819909   5474.700633   2207.661451    271.289667                    
V 13   2396.550727  -2406.267385  32354.993869       .012168                    
P 14  16528.394446 -14777.433171  14647.470494   -219.079049                    
V 14  18089.405594  -3676.464558 -24413.341681       .046723                    
P 15  14678.566371   9779.588185 -19836.375615   -178.288492                    
V 15 -23551.496758   9184.998066 -12865.912942      -.064826                    
P 16   1981.850296 -25734.727269  -5716.081526    106.649407                    
V 16   4354.881845  -6551.740092  30890.800143      -.020461                    
P 17 -16706.574346  15262.161923  13807.390149     38.962844                    
V 17 -17432.653050   2963.193537 -24613.398667       .001520                    
P 18  15955.527683 -11165.640765 -17690.475833   -133.321987                    
V 18  -3546.975076  22878.023281 -17806.176098       .040833                    
P 19 -15547.268720  -9980.448870 -19083.317152     35.453746                    
V 19  23307.240974  -7095.317087 -15013.355875       .001629                    
P 20 -14266.091204  -6890.270365  21209.586352    104.487473                    
V 20   5684.061238 -26652.171567  -4774.983427      -.010689                    
P 21  17691.288898  -3097.086161 -19535.768159     50.403588                    
V 21  17489.139791  18152.585517  12208.270248      -.015014                    
P 22  11710.361630 -22376.486751  -7954.075926    210.892735                    
V 22    533.034141  10836.850573 -29167.108105      -.001029                    
P 23 -23683.019357  -1182.665470  12179.712478    373.357918                    
V 23  14136.763371  -6484.279864  26468.857427       .014422                    
P 24  21547.029822  10274.590196 -11188.480522    125.702873                    
V 24   8254.107723  12344.790754  27118.833254       .030442                    
P 25 -22591.040781  -6693.254020 -11728.487268   -163.290207                    
V 25 -10976.185966 -11218.063910  26912.588295       .479996                    
P 26   9746.544535  12230.942569 -22045.743991    326.374705                    
V 26 -25688.242504   7046.866250  -7105.615487       .055216                    
P 27 -18366.532177   1519.106213 -18496.790909    218.012894                    
V 27 -18532.002996 -16605.954932  16332.435765       .028063                    
P 28 -11868.077337  21497.055067  -9285.449641    -22.521551                    
V 28    222.165840 -12762.365840 -28956.517354      -.002036                    
P 29  25708.306103  -3551.073473   5675.457316    -37.407782                    
V 29  -5987.002109   4665.470281  30667.561666       .010461                    
P 30  15705.246241  -5790.476529  20245.242386     96.936311                    
V 30  -3395.206993  26381.618969  10093.508591       .020451                    
P 31   -872.957904 -18490.326246  19208.788104    -26.735910                    
V 31  18689.108097  15071.218515  15624.036121      -.022795                    
P 32  -9855.381054 -15040.514331  20042.776014    316.280110                    
V 32   8006.179124 -23100.228263 -13511.458387       .004711                    
EOF
